{"generatedAt":"2026-04-25T07:27:05.313907Z","satellites":[{"name":"KUIPER-00231","tle1":"1 68580C 26072H   26115.21744213  .00012260  00000+0  31988-3 0  1155","tle2":"2 68580  51.8751  73.0027 0002661 149.0028 167.4043 15.38203457    18"},{"name":"KUIPER-00234","tle1":"1 68581C 26072J   26115.21188657  .00012299  00000+0  31642-3 0  1159","tle2":"2 68581  51.8763  72.9707 0002226 133.2674 180.9612 15.38633710    15"},{"name":"KUIPER-00236","tle1":"1 68582C 26072K   26115.21259259  .00012276  00000+0  31763-3 0  1156","tle2":"2 68582  51.8766  72.9805 0002422 134.9147 176.0653 15.38458696    18"},{"name":"KUIPER-00244","tle1":"1 68583C 26072L   26115.08827546 -.00017486  00000+0 -45802-3 0  1151","tle2":"2 68583  51.8761  73.6419 0003680 162.4678 150.8101 15.38110147    19"},{"name":"KUIPER-00253","tle1":"1 68584C 26072M   26115.22508102  .00011643  00000+0  30997-3 0  1158","tle2":"2 68584  51.8718  73.0491 0005066 169.3317 147.8776 15.37573509    10"},{"name":"KUIPER-00254","tle1":"1 68585C 26072N   26115.16537037  .00008550  00000+0  23152-3 0  1159","tle2":"2 68585  51.8717  73.4245 0007260 176.5904 127.4183 15.37037452    19"},{"name":"KUIPER-00263","tle1":"1 68586C 26072P   26115.21016204  .00012252  00000+0  31441-3 0  1158","tle2":"2 68586  51.8772  72.9587 0002123 105.9731 207.0991 15.38711900    11"},{"name":"KUIPER-00269","tle1":"1 68587C 26072Q   26115.15528935  .00009701  00000+0  25663-3 0  1155","tle2":"2 68587  51.8743  73.3604 0004309 156.7591 147.2832 15.37775620    18"},{"name":"KUIPER-00272","tle1":"1 68588C 26072R   26115.22843750  .00009679  00000+0  29463-3 0  1155","tle2":"2 68588  51.8745  73.0601 0005454 169.9636 146.1371 15.33388338    11"},{"name":"KUIPER-00285","tle1":"1 68589C 26072S   26115.15818287  .00009281  00000+0  24744-3 0  1151","tle2":"2 68589  51.8735  73.3974 0006144 175.7051 119.2778 15.37526069    11"},{"name":"KUIPER-00286","tle1":"1 68590C 26072T   26115.22128472  .00012009  00000+0  31657-3 0  1154","tle2":"2 68590  51.8735  73.0282 0004344 158.4170 157.5751 15.37880860    10"},{"name":"KUIPER-00289","tle1":"1 68591C 26072U   26115.17858796  .00007767  00000+0  21597-3 0  1155","tle2":"2 68591  51.8657  73.4930 0010442 192.4534 115.8279 15.36189123    11"},{"name":"KUIPER-00290","tle1":"1 68592C 26072V   26115.17784722  .00007739  00000+0  21504-3 0  1150","tle2":"2 68592  51.8641  73.4864 0010636 189.6696 118.3771 15.36209467    12"},{"name":"KUIPER-00293","tle1":"1 68593C 26072W   26115.18133102 -.00096097  00000+0 -27145-2 0  1155","tle2":"2 68593  51.8644  73.5305 0011029 194.9007 102.3155 15.35795109    10"},{"name":"KUIPER-00294","tle1":"1 68594C 26072X   26115.17510417  .00007775  00000+0  21442-3 0  1151","tle2":"2 68594  51.8678  73.4707 0009318 189.4061 120.4870 15.36452661    19"},{"name":"KUIPER-00296","tle1":"1 68595C 26072Y   26115.16885417  .00008118  00000+0  22118-3 0  1159","tle2":"2 68595  51.8698  73.4453 0008165 182.6923 121.1896 15.36843159    13"},{"name":"KUIPER-00297","tle1":"1 68596C 26072Z   26115.17601852  .00007713  00000+0  21424-3 0  1159","tle2":"2 68596  51.8627  73.4794 0009526 188.8153 115.9165 15.36232591    11"},{"name":"KUIPER-00300","tle1":"1 68597C 26072AA  26115.16502315  .00008410  00000+0  22767-3 0  1159","tle2":"2 68597  51.8672  73.4311 0007818 183.0192 114.2289 15.37043487    13"},{"name":"KUIPER-00301","tle1":"1 68598C 26072AB  26115.17195602  .00007971  00000+0  21807-3 0  1153","tle2":"2 68598  51.8650  73.4435 0008457 186.3109 125.1942 15.36713228    14"},{"name":"KUIPER-00304","tle1":"1 68599C 26072AC  26115.17162037  .00007861  00000+0  21563-3 0  1157","tle2":"2 68599  51.8663  73.4606 0009108 186.1089 116.7904 15.36621508    11"},{"name":"KUIPER-00317","tle1":"1 68600C 26072AD  26115.16780093  .00008170  00000+0  22291-3 0  1150","tle2":"2 68600  51.8684  73.4379 0008710 178.4103 125.0272 15.36793769    13"},{"name":"KUIPER-00320","tle1":"1 68601C 26072AE  26115.17996528  .00007781  00000+0  21730-3 0  1158","tle2":"2 68601  51.8605  73.4889 0010801 191.1637 119.2140 15.36050117    13"}]}